0 H-2A R/B(2)
1 27518U 02042D   13281.74540472  .00000043  00000-0  70472-3 0  6198
2 27518 028.4570 112.8177 7128098 051.7543 105.7376 02.35843043 95711
0 H-2A R/B(2)
1 27518U 02042D   13282.90221601  .00000039  00000-0  76358-3 0  6203
2 27518 028.4562 112.3956 7128274 052.4400 007.9062 02.35843613 95749
0 H-2A R/B(2)
1 27518U 02042D   13283.73284622  .00000133  00000-0  61754-3 0  6217
2 27518 028.4503 112.0989 7129049 052.9266 353.1352 02.35844313 95761
0 H-2A R/B(2)
1 27518U 02042D   13285.82882178  .00000040  00000-0  76236-3 0  6228
2 27518 028.4538 111.3288 7128704 054.1737 332.6897 02.35844701 95810
0 H-2A R/B(2)
1 27518U 02042D   13287.56369226  .00000063  00000-0  71376-3 0  6231
2 27518 028.4521 110.6955 7128891 055.2020 005.6513 02.35845754 95854
0 H-2A R/B(2)
1 27518U 02042D   13288.84351216  .00000066  00000-0  60949-3 0  6241
2 27518 028.4510 110.2287 7129011 055.9599 012.2647 02.35846689 95882
0 H-2A R/B(2)
1 27518U 02042D   13290.53127492  .00000062  00000-0  51161-3 0  6250
2 27518 028.4496 109.6133 7129191 056.9583 005.2448 02.35847324 95923
0 H-2A R/B(2)
1 27518U 02042D   13291.80138397  .00000047  00000-0  47008-3 0  6266
2 27518 028.4486 109.1506 7129326 057.7092 003.6235 02.35847829 95954
0 H-2A R/B(2)
1 27518U 02042D   13293.50028647 -.00000006  00000-0  34814-3 0  6279
2 27518 028.4474 108.5317 7129535 058.7130 006.0702 02.35848484 95998
0 H-2A R/B(2)
1 27518U 02042D   13294.77272520 -.00000035  00000-0  32043-3 0  6285
2 27518 028.4466 108.0683 7129662 059.4651 006.4314 02.35848984 96020
